{
  "type": "FeatureCollection",
  "features": [
    {
      "type": "Feature",
      "properties": {
        "norad_id": 32174,
        "name": "FENGYUN 1C DEB",
        "group": "fengyun-1c-debris",
        "lat": 70.19341140754268,
        "lon": -113.85884013072567,
        "alt_km": 927.8360397498809,
        "timestamp": "2025-12-04T21:36:16.158567+00:00",
        "meta_object_name": "FENGYUN 1C DEB",
        "meta_object_id": "1999-025CTU",
        "meta_epoch": "2025-11-24T10:25:59.655072",
        "meta_mean_motion": 14.17883196,
        "meta_eccentricity": 0.01501888,
        "meta_inclination": 98.6025,
        "meta_ra_of_asc_node": 31.1449,
        "meta_arg_of_pericenter": 298.935,
        "meta_mean_anomaly": 59.6834,
        "meta_ephemeris_type": 0,
        "meta_classification_type": "U",
        "meta_norad_cat_id": 32174,
        "meta_element_set_no": 999,
        "meta_rev_at_epoch": 63846,
        "meta_bstar": 0.00027509636,
        "meta_mean_motion_dot": 5.84e-06,
        "meta_mean_motion_ddot": 0,
        "tle_line1": "1 32174U 99025CTU 25328.43471823  .00000584  00000+0  27510-3 0  9998",
        "tle_line2": "2 32174  98.6025  31.1449 0150188 298.9350  59.6834 14.17883196638460"
      },
      "geometry": {
        "type": "Point",
        "coordinates": [
          -113.85884013072567,
          70.19341140754268
        ]
      }
    },
    {
      "type": "Feature",
      "properties": {
        "norad_id": 32175,
        "name": "FENGYUN 1C DEB",
        "group": "fengyun-1c-debris",
        "lat": -69.46893276376034,
        "lon": -7.6911868939757175,
        "alt_km": 855.7193090880182,
        "timestamp": "2025-12-04T21:36:16.158578+00:00",
        "meta_object_name": "FENGYUN 1C DEB",
        "meta_object_id": "1999-025CTV",
        "meta_epoch": "2025-11-30T18:04:30.432000",
        "meta_mean_motion": 13.94645307,
        "meta_eccentricity": 0.01526915,
        "meta_inclination": 98.8237,
        "meta_ra_of_asc_node": 323.8389,
        "meta_arg_of_pericenter": 355.8244,
        "meta_mean_anomaly": 4.1634,
        "meta_ephemeris_type": 0,
        "meta_classification_type": "U",
        "meta_norad_cat_id": 32175,
        "meta_element_set_no": 999,
        "meta_rev_at_epoch": 59673,
        "meta_bstar": 0.0032372864,
        "meta_mean_motion_dot": 4.731e-05,
        "meta_mean_motion_ddot": 0,
        "tle_line1": "1 32175U 99025CTV 25334.75313000  .00004731  00000+0  32373-2 0  9993",
        "tle_line2": "2 32175  98.8237 323.8389 0152691 355.8244   4.1634 13.94645307596738"
      },
      "geometry": {
        "type": "Point",
        "coordinates": [
          -7.6911868939757175,
          -69.46893276376034
        ]
      }
    },
    {
      "type": "Feature",
      "properties": {
        "norad_id": 32177,
        "name": "FENGYUN 1C DEB",
        "group": "fengyun-1c-debris",
        "lat": 44.6226253803424,
        "lon": 176.59455702027617,
        "alt_km": 686.9516398201367,
        "timestamp": "2025-12-04T21:36:16.158588+00:00",
        "meta_object_name": "FENGYUN 1C DEB",
        "meta_object_id": "1999-025CTX",
        "meta_epoch": "2025-12-03T18:36:20.133792",
        "meta_mean_motion": 14.56036202,
        "meta_eccentricity": 0.00523267,
        "meta_inclination": 99.0442,
        "meta_ra_of_asc_node": 346.332,
        "meta_arg_of_pericenter": 71.8301,
        "meta_mean_anomaly": 288.8582,
        "meta_ephemeris_type": 0,
        "meta_classification_type": "U",
        "meta_norad_cat_id": 32177,
        "meta_element_set_no": 999,
        "meta_rev_at_epoch": 70908,
        "meta_bstar": 0.0020691838,
        "meta_mean_motion_dot": 9.238e-05,
        "meta_mean_motion_ddot": 0,
        "tle_line1": "1 32177U 99025CTX 25337.77523303  .00009238  00000+0  20692-2 0  9997",
        "tle_line2": "2 32177  99.0442 346.3320 0052326  71.8301 288.8582 14.56036202709083"
      },
      "geometry": {
        "type": "Point",
        "coordinates": [
          176.59455702027617,
          44.6226253803424
        ]
      }
    },
    {
      "type": "Feature",
      "properties": {
        "norad_id": 32178,
        "name": "FENGYUN 1C DEB",
        "group": "fengyun-1c-debris",
        "lat": -20.535228805000056,
        "lon": 155.10308601250205,
        "alt_km": 875.9372558098894,
        "timestamp": "2025-12-04T21:36:16.158598+00:00",
        "meta_object_name": "FENGYUN 1C DEB",
        "meta_object_id": "1999-025CTY",
        "meta_epoch": "2025-11-26T06:46:13.443456",
        "meta_mean_motion": 14.22843314,
        "meta_eccentricity": 0.00951304,
        "meta_inclination": 100.3039,
        "meta_ra_of_asc_node": 328.9436,
        "meta_arg_of_pericenter": 8.654,
        "meta_mean_anomaly": 351.6247,
        "meta_ephemeris_type": 0,
        "meta_classification_type": "U",
        "meta_norad_cat_id": 32178,
        "meta_element_set_no": 999,
        "meta_rev_at_epoch": 63769,
        "meta_bstar": 0.0014846781,
        "meta_mean_motion_dot": 3.436e-05,
        "meta_mean_motion_ddot": 0,
        "tle_line1": "1 32178U 99025CTY 25330.28210004  .00003436  00000+0  14847-2 0  9997",
        "tle_line2": "2 32178 100.3039 328.9436 0095130   8.6540 351.6247 14.22843314637696"
      },
      "geometry": {
        "type": "Point",
        "coordinates": [
          155.10308601250205,
          -20.535228805000056
        ]
      }
    },
    {
      "type": "Feature",
      "properties": {
        "norad_id": 32179,
        "name": "FENGYUN 1C DEB",
        "group": "fengyun-1c-debris",
        "lat": 40.73772078782654,
        "lon": 20.118826780109806,
        "alt_km": 981.3815456237089,
        "timestamp": "2025-12-04T21:36:16.158608+00:00",
        "meta_object_name": "FENGYUN 1C DEB",
        "meta_object_id": "1999-025CTZ",
        "meta_epoch": "2025-12-03T02:46:28.571808",
        "meta_mean_motion": 14.0367335,
        "meta_eccentricity": 0.01447713,
        "meta_inclination": 98.911,
        "meta_ra_of_asc_node": 26.1355,
        "meta_arg_of_pericenter": 216.7043,
        "meta_mean_anomaly": 172.1012,
        "meta_ephemeris_type": 0,
        "meta_classification_type": "U",
        "meta_norad_cat_id": 32179,
        "meta_element_set_no": 999,
        "meta_rev_at_epoch": 65593,
        "meta_bstar": 0.00012219611,
        "meta_mean_motion_dot": 1.67e-06,
        "meta_mean_motion_ddot": 0,
        "tle_line1": "1 32179U 99025CTZ 25337.11560847  .00000167  00000+0  12220-3 0  9992",
        "tle_line2": "2 32179  98.9110  26.1355 0144771 216.7043 172.1012 14.03673350655935"
      },
      "geometry": {
        "type": "Point",
        "coordinates": [
          20.118826780109806,
          40.73772078782654
        ]
      }
    },
    {
      "type": "Feature",
      "properties": {
        "norad_id": 32180,
        "name": "FENGYUN 1C DEB",
        "group": "fengyun-1c-debris",
        "lat": -23.644274097730325,
        "lon": -165.35375322741493,
        "alt_km": 872.0205840184844,
        "timestamp": "2025-12-04T21:36:16.158618+00:00",
        "meta_object_name": "FENGYUN 1C DEB",
        "meta_object_id": "1999-025CUA",
        "meta_epoch": "2025-12-04T08:32:09.341952",
        "meta_mean_motion": 13.82324424,
        "meta_eccentricity": 0.01360733,
        "meta_inclination": 99.587,
        "meta_ra_of_asc_node": 18.3359,
        "meta_arg_of_pericenter": 232.611,
        "meta_mean_anomaly": 143.6726,
        "meta_ephemeris_type": 0,
        "meta_classification_type": "U",
        "meta_norad_cat_id": 32180,
        "meta_element_set_no": 999,
        "meta_rev_at_epoch": 94152,
        "meta_bstar": 0.00019835409,
        "meta_mean_motion_dot": 1.83e-06,
        "meta_mean_motion_ddot": 0,
        "tle_line1": "1 32180U 99025CUA 25338.35566368  .00000183  00000+0  19835-3 0  9992",
        "tle_line2": "2 32180  99.5870  18.3359 0136073 232.6110 143.6726 13.82324424941521"
      },
      "geometry": {
        "type": "Point",
        "coordinates": [
          -165.35375322741493,
          -23.644274097730325
        ]
      }
    },
    {
      "type": "Feature",
      "properties": {
        "norad_id": 32181,
        "name": "FENGYUN 1C DEB",
        "group": "fengyun-1c-debris",
        "lat": -36.08259311622212,
        "lon": -105.35976482623117,
        "alt_km": 728.5344580910987,
        "timestamp": "2025-12-04T21:36:16.158628+00:00",
        "meta_object_name": "FENGYUN 1C DEB",
        "meta_object_id": "1999-025CUB",
        "meta_epoch": "2025-11-30T18:20:52.902816",
        "meta_mean_motion": 14.5587127,
        "meta_eccentricity": 0.00742263,
        "meta_inclination": 99.4729,
        "meta_ra_of_asc_node": 76.9403,
        "meta_arg_of_pericenter": 120.9158,
        "meta_mean_anomaly": 31.1571,
        "meta_ephemeris_type": 0,
        "meta_classification_type": "U",
        "meta_norad_cat_id": 32181,
        "meta_element_set_no": 999,
        "meta_rev_at_epoch": 96546,
        "meta_bstar": 0.0011280546,
        "meta_mean_motion_dot": 5.08e-05,
        "meta_mean_motion_ddot": 0,
        "tle_line1": "1 32181U 99025CUB 25334.76450119  .00005080  00000+0  11281-2 0  9997",
        "tle_line2": "2 32181  99.4729  76.9403 0074226 120.9158  31.1571 14.55871270965461"
      },
      "geometry": {
        "type": "Point",
        "coordinates": [
          -105.35976482623117,
          -36.08259311622212
        ]
      }
    }
  ]
}